[{"OBJECT_NAME":"TYVAK-0172","OBJECT_ID":"2020-059C","EPOCH":"2026-03-09T15:00:33.219936","MEAN_MOTION":15.70916107,"ECCENTRICITY":0.0003543,"INCLINATION":97.7214,"RA_OF_ASC_NODE":311.0561,"ARG_OF_PERICENTER":67.1132,"MEAN_ANOMALY":293.0503,"EPHEMERIS_TYPE":0,"CLASSIFICATION_TYPE":"U","NORAD_CAT_ID":46267,"ELEMENT_SET_NO":999,"REV_AT_EPOCH":30311,"BSTAR":0.0021652,"MEAN_MOTION_DOT":0.00278441,"MEAN_MOTION_DDOT":0},{"OBJECT_NAME":"STARLINK-11500 [DTC]","OBJECT_ID":"2024-254L","EPOCH":"2026-03-09T11:51:43.122240","MEAN_MOTION":15.70810671,"ECCENTRICITY":0.00049498,"INCLINATION":42.9997,"RA_OF_ASC_NODE":223.8747,"ARG_OF_PERICENTER":300.2067,"MEAN_ANOMALY":59.831,"EPHEMERIS_TYPE":0,"CLASSIFICATION_TYPE":"U","NORAD_CAT_ID":62472,"ELEMENT_SET_NO":999,"REV_AT_EPOCH":6884,"BSTAR":0.0018364755,"MEAN_MOTION_DOT":0.00241978,"MEAN_MOTION_DDOT":0}]
