TYVAK-0172              
1 46267U 20059C   26068.62538449  .00278441  00000+0  21652-2 0  9997
2 46267  97.7214 311.0561 0003543  67.1132 293.0503 15.70916107303116
STARLINK-11500 [DTC]    
1 62472U 24254L   26068.49424910  .00241978  00000+0  18365-2 0  9998
2 62472  42.9997 223.8747 0004949 300.2067  59.8310 15.70810671 68848
